{
  "type": "FeatureCollection",
  "features": [
    {
      "type": "Feature",
      "properties": {
        "norad_id": 24946,
        "name": "IRIDIUM 33",
        "group": "iridium-33-debris",
        "lat": 27.28149479207819,
        "lon": 72.58832613341067,
        "alt_km": 778.3178415301554,
        "timestamp": "2025-12-06T18:50:10.553977+00:00",
        "meta_object_name": "IRIDIUM 33",
        "meta_object_id": "1997-051C",
        "meta_epoch": "2025-12-06T05:19:16.082688",
        "meta_mean_motion": 14.35030019,
        "meta_eccentricity": 0.00063598,
        "meta_inclination": 86.387,
        "meta_ra_of_asc_node": 70.9573,
        "meta_arg_of_pericenter": 225.1347,
        "meta_mean_anomaly": 134.9333,
        "meta_ephemeris_type": 0,
        "meta_classification_type": "U",
        "meta_norad_cat_id": 24946,
        "meta_element_set_no": 999,
        "meta_rev_at_epoch": 47741,
        "meta_bstar": 0.000227157,
        "meta_mean_motion_dot": 6.66e-06,
        "meta_mean_motion_ddot": 0,
        "tle_line1": "1 24946U 97051C   25340.22171392  .00000666  00000+0  22716-3 0  9996",
        "tle_line2": "2 24946  86.3870  70.9573 0006359 225.1347 134.9333 14.35030019477412"
      },
      "geometry": {
        "type": "Point",
        "coordinates": [
          72.58832613341067,
          27.28149479207819
        ]
      }
    },
    {
      "type": "Feature",
      "properties": {
        "norad_id": 33773,
        "name": "IRIDIUM 33 DEB",
        "group": "iridium-33-debris",
        "lat": 11.244222393958452,
        "lon": -117.60384807251327,
        "alt_km": 740.8993081011295,
        "timestamp": "2025-12-06T18:50:10.554020+00:00",
        "meta_object_name": "IRIDIUM 33 DEB",
        "meta_object_id": "1997-051L",
        "meta_epoch": "2025-12-05T23:45:13.439232",
        "meta_mean_motion": 14.43234008,
        "meta_eccentricity": 0.0011835,
        "meta_inclination": 86.4017,
        "meta_ra_of_asc_node": 63.4497,
        "meta_arg_of_pericenter": 166.7943,
        "meta_mean_anomaly": 193.357,
        "meta_ephemeris_type": 0,
        "meta_classification_type": "U",
        "meta_norad_cat_id": 33773,
        "meta_element_set_no": 999,
        "meta_rev_at_epoch": 88250,
        "meta_bstar": 0.00066391779,
        "meta_mean_motion_dot": 2.254e-05,
        "meta_mean_motion_ddot": 0,
        "tle_line1": "1 33773U 97051L   25339.98973888  .00002254  00000+0  66392-3 0  9998",
        "tle_line2": "2 33773  86.4017  63.4497 0011835 166.7943 193.3570 14.43234008882508"
      },
      "geometry": {
        "type": "Point",
        "coordinates": [
          -117.60384807251327,
          11.244222393958452
        ]
      }
    },
    {
      "type": "Feature",
      "properties": {
        "norad_id": 33775,
        "name": "IRIDIUM 33 DEB",
        "group": "iridium-33-debris",
        "lat": -69.20699418991362,
        "lon": 42.456271722262194,
        "alt_km": 765.4717901084687,
        "timestamp": "2025-12-06T18:50:10.554037+00:00",
        "meta_object_name": "IRIDIUM 33 DEB",
        "meta_object_id": "1997-051N",
        "meta_epoch": "2025-12-05T17:05:17.332224",
        "meta_mean_motion": 14.41444642,
        "meta_eccentricity": 0.00134808,
        "meta_inclination": 86.3642,
        "meta_ra_of_asc_node": 52.5534,
        "meta_arg_of_pericenter": 176.816,
        "meta_mean_anomaly": 309.9384,
        "meta_ephemeris_type": 0,
        "meta_classification_type": "U",
        "meta_norad_cat_id": 33775,
        "meta_element_set_no": 999,
        "meta_rev_at_epoch": 88039,
        "meta_bstar": 0.00063125965,
        "meta_mean_motion_dot": 2.068e-05,
        "meta_mean_motion_ddot": 0,
        "tle_line1": "1 33775U 97051N   25339.71200616  .00002068  00000+0  63126-3 0  9998",
        "tle_line2": "2 33775  86.3642  52.5534 0013480 176.8160 309.9384 14.41444642880393"
      },
      "geometry": {
        "type": "Point",
        "coordinates": [
          42.456271722262194,
          -69.20699418991362
        ]
      }
    },
    {
      "type": "Feature",
      "properties": {
        "norad_id": 33776,
        "name": "IRIDIUM 33 DEB",
        "group": "iridium-33-debris",
        "lat": -49.27271382083009,
        "lon": -92.53454571733117,
        "alt_km": 762.1295730387565,
        "timestamp": "2025-12-06T18:50:10.554051+00:00",
        "meta_object_name": "IRIDIUM 33 DEB",
        "meta_object_id": "1997-051P",
        "meta_epoch": "2025-12-06T01:52:47.091648",
        "meta_mean_motion": 14.38214092,
        "meta_eccentricity": 0.00136142,
        "meta_inclination": 86.4036,
        "meta_ra_of_asc_node": 83.573,
        "meta_arg_of_pericenter": 213.2162,
        "meta_mean_anomaly": 320.3072,
        "meta_ephemeris_type": 0,
        "meta_classification_type": "U",
        "meta_norad_cat_id": 33776,
        "meta_element_set_no": 999,
        "meta_rev_at_epoch": 87986,
        "meta_bstar": 0.00054139053,
        "meta_mean_motion_dot": 1.665e-05,
        "meta_mean_motion_ddot": 0,
        "tle_line1": "1 33776U 97051P   25340.07832282  .00001665  00000+0  54139-3 0  9996",
        "tle_line2": "2 33776  86.4036  83.5730 0013614 213.2162 320.3072 14.38214092879862"
      },
      "geometry": {
        "type": "Point",
        "coordinates": [
          -92.53454571733117,
          -49.27271382083009
        ]
      }
    },
    {
      "type": "Feature",
      "properties": {
        "norad_id": 33777,
        "name": "IRIDIUM 33 DEB",
        "group": "iridium-33-debris",
        "lat": 5.429353125419849,
        "lon": 38.13883649971282,
        "alt_km": 709.7745322748488,
        "timestamp": "2025-12-06T18:50:10.554063+00:00",
        "meta_object_name": "IRIDIUM 33 DEB",
        "meta_object_id": "1997-051Q",
        "meta_epoch": "2025-12-06T02:18:43.228224",
        "meta_mean_motion": 14.55537438,
        "meta_eccentricity": 0.00051038,
        "meta_inclination": 86.379,
        "meta_ra_of_asc_node": 38.0933,
        "meta_arg_of_pericenter": 280.4067,
        "meta_mean_anomaly": 79.6565,
        "meta_ephemeris_type": 0,
        "meta_classification_type": "U",
        "meta_norad_cat_id": 33777,
        "meta_element_set_no": 999,
        "meta_rev_at_epoch": 88437,
        "meta_bstar": 0.0015308345,
        "meta_mean_motion_dot": 6.689e-05,
        "meta_mean_motion_ddot": 0,
        "tle_line1": "1 33777U 97051Q   25340.09633366  .00006689  00000+0  15308-2 0  9996",
        "tle_line2": "2 33777  86.3790  38.0933 0005103 280.4067  79.6565 14.55537438884377"
      },
      "geometry": {
        "type": "Point",
        "coordinates": [
          38.13883649971282,
          5.429353125419849
        ]
      }
    },
    {
      "type": "Feature",
      "properties": {
        "norad_id": 33850,
        "name": "IRIDIUM 33 DEB",
        "group": "iridium-33-debris",
        "lat": -76.43429245258648,
        "lon": -131.88687215872855,
        "alt_km": 757.1150649235396,
        "timestamp": "2025-12-06T18:50:10.554075+00:00",
        "meta_object_name": "IRIDIUM 33 DEB",
        "meta_object_id": "1997-051T",
        "meta_epoch": "2025-12-05T15:32:06.083232",
        "meta_mean_motion": 14.42123822,
        "meta_eccentricity": 0.00115072,
        "meta_inclination": 86.3424,
        "meta_ra_of_asc_node": 33.2293,
        "meta_arg_of_pericenter": 183.1131,
        "meta_mean_anomaly": 291.637,
        "meta_ephemeris_type": 0,
        "meta_classification_type": "U",
        "meta_norad_cat_id": 33850,
        "meta_element_set_no": 999,
        "meta_rev_at_epoch": 88050,
        "meta_bstar": 0.00076178787,
        "meta_mean_motion_dot": 2.525e-05,
        "meta_mean_motion_ddot": 0,
        "tle_line1": "1 33850U 97051T   25339.64729263  .00002525  00000+0  76179-3 0  9998",
        "tle_line2": "2 33850  86.3424  33.2293 0011507 183.1131 291.6370 14.42123822880500"
      },
      "geometry": {
        "type": "Point",
        "coordinates": [
          -131.88687215872855,
          -76.43429245258648
        ]
      }
    },
    {
      "type": "Feature",
      "properties": {
        "norad_id": 33853,
        "name": "IRIDIUM 33 DEB",
        "group": "iridium-33-debris",
        "lat": 59.00201576224191,
        "lon": 165.7350494502547,
        "alt_km": 993.6531817187815,
        "timestamp": "2025-12-06T18:50:10.554088+00:00",
        "meta_object_name": "IRIDIUM 33 DEB",
        "meta_object_id": "1997-051W",
        "meta_epoch": "2025-12-06T01:20:40.145280",
        "meta_mean_motion": 13.98996875,
        "meta_eccentricity": 0.02068178,
        "meta_inclination": 85.9999,
        "meta_ra_of_asc_node": 352.7424,
        "meta_arg_of_pericenter": 256.5072,
        "meta_mean_anomaly": 157.5204,
        "meta_ephemeris_type": 0,
        "meta_classification_type": "U",
        "meta_norad_cat_id": 33853,
        "meta_element_set_no": 999,
        "meta_rev_at_epoch": 85252,
        "meta_bstar": 0.0034440832,
        "meta_mean_motion_dot": 5.992e-05,
        "meta_mean_motion_ddot": 0,
        "tle_line1": "1 33853U 97051W   25340.05602020  .00005992  00000+0  34441-2 0  9995",
        "tle_line2": "2 33853  85.9999 352.7424 0206817 256.5072 157.5204 13.98996875852522"
      },
      "geometry": {
        "type": "Point",
        "coordinates": [
          165.7350494502547,
          59.00201576224191
        ]
      }
    }
  ]
}